[
    {
        "Altitude(m)": 557848.9794817517,
        "Argument of Periapsis(deg)": 0.006622991110713501,
        "Eccentricity": 0.0,
        "Inclination(deg)": 53.0,
        "Latitude(deg)": -16.65046365329583,
        "Longitude(deg)": -113.72485253794711,
        "Mean Anomaly(deg)": 339.1824928675776,
        "RAAN(deg)": -0.009856631471983178,
        "Satellite Name": "Starlink Shell 1 20",
        "Satellite Number": 20,
        "Semi-Major Axis(m)": 6931778.249405717,
        "Time(s)": 190
    },
    {
        "Altitude(m)": 557703.7607862408,
        "Argument of Periapsis(deg)": 0.0069715695902247375,
        "Eccentricity": 0.0,
        "Inclination(deg)": 53.0,
        "Latitude(deg)": -16.159742974131547,
        "Longitude(deg)": -113.35740965667172,
        "Mean Anomaly(deg)": 339.8093240711343,
        "RAAN(deg)": -0.010375401549455977,
        "Satellite Name": "Starlink Shell 1 20",
        "Satellite Number": 20,
        "Semi-Major Axis(m)": 6931778.249405717,
        "Time(s)": 200
    },
    {
        "Altitude(m)": 557560.4098961852,
        "Argument of Periapsis(deg)": 0.007320148069735974,
        "Eccentricity": 0.0,
        "Inclination(deg)": 53.0,
        "Latitude(deg)": -15.668205330778658,
        "Longitude(deg)": -112.99196603014686,
        "Mean Anomaly(deg)": 340.436155274691,
        "RAAN(deg)": -0.010894171626928776,
        "Satellite Name": "Starlink Shell 1 20",
        "Satellite Number": 20,
        "Semi-Major Axis(m)": 6931778.249405717,
        "Time(s)": 210
    },
    {
        "Altitude(m)": 557418.9738038864,
        "Argument of Periapsis(deg)": 0.007668726549247212,
        "Eccentricity": 0.0,
        "Inclination(deg)": 53.0,
        "Latitude(deg)": -15.175879889344767,
        "Longitude(deg)": -112.62845130425777,
        "Mean Anomaly(deg)": 341.0629864782477,
        "RAAN(deg)": -0.011412941704401575,
        "Satellite Name": "Starlink Shell 1 20",
        "Satellite Number": 20,
        "Semi-Major Axis(m)": 6931778.249405717,
        "Time(s)": 220
    },
    {
        "Altitude(m)": 557279.4985007029,
        "Argument of Periapsis(deg)": 0.00801730502875845,
        "Eccentricity": 0.0,
        "Inclination(deg)": 53.0,
        "Latitude(deg)": -14.682795396114644,
        "Longitude(deg)": -112.2667959331414,
        "Mean Anomaly(deg)": 341.68981768180447,
        "RAAN(deg)": -0.011931711781874374,
        "Satellite Name": "Starlink Shell 1 20",
        "Satellite Number": 20,
        "Semi-Major Axis(m)": 6931778.249405717,
        "Time(s)": 230
    },
    {
        "Altitude(m)": 557142.028956895,
        "Argument of Periapsis(deg)": 0.008365883508269684,
        "Eccentricity": 0.0,
        "Inclination(deg)": 53.0,
        "Latitude(deg)": -14.188980194664046,
        "Longitude(deg)": -111.90693064828018,
        "Mean Anomaly(deg)": 342.31664888536113,
        "RAAN(deg)": -0.012450481859347171,
        "Satellite Name": "Starlink Shell 1 20",
        "Satellite Number": 20,
        "Semi-Major Axis(m)": 6931778.249405717,
        "Time(s)": 240
    },
    {
        "Altitude(m)": 557006.6091020196,
        "Argument of Periapsis(deg)": 0.008714461987780921,
        "Eccentricity": 0.0,
        "Inclination(deg)": 53.0,
        "Latitude(deg)": -13.694462242617197,
        "Longitude(deg)": -111.54878744041821,
        "Mean Anomaly(deg)": 342.9434800889179,
        "RAAN(deg)": -0.012969251936819972,
        "Satellite Name": "Starlink Shell 1 20",
        "Satellite Number": 20,
        "Semi-Major Axis(m)": 6931778.249405717,
        "Time(s)": 250
    },
    {
        "Altitude(m)": 556873.2818057907,
        "Argument of Periapsis(deg)": 0.009063040467292158,
        "Eccentricity": 0.0,
        "Inclination(deg)": 53.0,
        "Latitude(deg)": -13.19926912806103,
        "Longitude(deg)": -111.1922990285728,
        "Mean Anomaly(deg)": 343.57031129247457,
        "RAAN(deg)": -0.013488022014292769,
        "Satellite Name": "Starlink Shell 1 20",
        "Satellite Number": 20,
        "Semi-Major Axis(m)": 6931778.249405717,
        "Time(s)": 260
    },
    {
        "Altitude(m)": 556742.0888594915,
        "Argument of Periapsis(deg)": 0.009411618946803396,
        "Eccentricity": 0.0,
        "Inclination(deg)": 53.0,
        "Latitude(deg)": -12.703428085628117,
        "Longitude(deg)": -110.83739832903748,
        "Mean Anomaly(deg)": 344.1971424960313,
        "RAAN(deg)": -0.014006792091765568,
        "Satellite Name": "Starlink Shell 1 20",
        "Satellite Number": 20,
        "Semi-Major Axis(m)": 6931778.249405717,
        "Time(s)": 270
    },
    {
        "Altitude(m)": 556613.0709578849,
        "Argument of Periapsis(deg)": 0.009760197426314633,
        "Eccentricity": 0.0,
        "Inclination(deg)": 53.0,
        "Latitude(deg)": -12.20696601225931,
        "Longitude(deg)": -110.484019437268,
        "Mean Anomaly(deg)": 344.823973699588,
        "RAAN(deg)": -0.014525562169238369,
        "Satellite Name": "Starlink Shell 1 20",
        "Satellite Number": 20,
        "Semi-Major Axis(m)": 6931778.249405717,
        "Time(s)": 280
    },
    {
        "Altitude(m)": 556486.2676817138,
        "Argument of Periapsis(deg)": 0.01010877590582587,
        "Eccentricity": 0.0,
        "Inclination(deg)": 53.0,
        "Latitude(deg)": -11.709909482660569,
        "Longitude(deg)": -110.1320970969188,
        "Mean Anomaly(deg)": 345.45080490314473,
        "RAAN(deg)": -0.015044332246711162,
        "Satellite Name": "Starlink Shell 1 20",
        "Satellite Number": 20,
        "Semi-Major Axis(m)": 6931778.249405717,
        "Time(s)": 290
    },
    {
        "Altitude(m)": 556361.7174806878,
        "Argument of Periapsis(deg)": 0.010457354385337106,
        "Eccentricity": 0.0,
        "Inclination(deg)": 53.0,
        "Latitude(deg)": -11.212284764465435,
        "Longitude(deg)": -109.78156616891772,
        "Mean Anomaly(deg)": 346.07763610670145,
        "RAAN(deg)": -0.015563102324183963,
        "Satellite Name": "Starlink Shell 1 20",
        "Satellite Number": 20,
        "Semi-Major Axis(m)": 6931778.249405717,
        "Time(s)": 300
    },
    {
        "Altitude(m)": 556239.4576570771,
        "Argument of Periapsis(deg)": 0.010805932864848343,
        "Eccentricity": 0.0,
        "Inclination(deg)": 53.0,
        "Latitude(deg)": -10.714117833114019,
        "Longitude(deg)": -109.43236261346387,
        "Mean Anomaly(deg)": 346.70446731025817,
        "RAAN(deg)": -0.016081872401656764,
        "Satellite Name": "Starlink Shell 1 20",
        "Satellite Number": 20,
        "Semi-Major Axis(m)": 6931778.249405717,
        "Time(s)": 310
    },
    {
        "Altitude(m)": 556119.5243498669,
        "Argument of Periapsis(deg)": 0.01115451134435958,
        "Eccentricity": 0.0,
        "Inclination(deg)": 53.0,
        "Latitude(deg)": -10.215434386463883,
        "Longitude(deg)": -109.08442295921105,
        "Mean Anomaly(deg)": 347.33129851381483,
        "RAAN(deg)": -0.01660064247912956,
        "Satellite Name": "Starlink Shell 1 20",
        "Satellite Number": 20,
        "Semi-Major Axis(m)": 6931778.249405717,
        "Time(s)": 320
    },
    {
        "Altitude(m)": 556001.9525194587,
        "Argument of Periapsis(deg)": 0.011503089823870818,
        "Eccentricity": 0.0,
        "Inclination(deg)": 53.0,
        "Latitude(deg)": -9.716259859142799,
        "Longitude(deg)": -108.7376837725178,
        "Mean Anomaly(deg)": 347.9581297173716,
        "RAAN(deg)": -0.01711941255660236,
        "Satellite Name": "Starlink Shell 1 20",
        "Satellite Number": 20,
        "Semi-Major Axis(m)": 6931778.249405717,
        "Time(s)": 330
    },
    {
        "Altitude(m)": 555886.775932985,
        "Argument of Periapsis(deg)": 0.011851668303382053,
        "Eccentricity": 0.0,
        "Inclination(deg)": 53.0,
        "Latitude(deg)": -9.21661943665578,
        "Longitude(deg)": -108.39208263964426,
        "Mean Anomaly(deg)": 348.5849609209283,
        "RAAN(deg)": -0.01763818263407516,
        "Satellite Name": "Starlink Shell 1 20",
        "Satellite Number": 20,
        "Semi-Major Axis(m)": 6931778.249405717,
        "Time(s)": 340
    },
    {
        "Altitude(m)": 555774.0271502144,
        "Argument of Periapsis(deg)": 0.012200246782893292,
        "Eccentricity": 0.0,
        "Inclination(deg)": 53.0,
        "Latitude(deg)": -8.716538069259583,
        "Longitude(deg)": -108.04755763615279,
        "Mean Anomaly(deg)": 349.211792124485,
        "RAAN(deg)": -0.018156952711547956,
        "Satellite Name": "Starlink Shell 1 20",
        "Satellite Number": 20,
        "Semi-Major Axis(m)": 6931778.249405717,
        "Time(s)": 350
    },
    {
        "Altitude(m)": 555663.737510023,
        "Argument of Periapsis(deg)": 0.012548825262404526,
        "Eccentricity": 0.0,
        "Inclination(deg)": 53.0,
        "Latitude(deg)": -8.216040485616427,
        "Longitude(deg)": -107.7040467963898,
        "Mean Anomaly(deg)": 349.83862332804176,
        "RAAN(deg)": -0.01867572278902076,
        "Satellite Name": "Starlink Shell 1 20",
        "Satellite Number": 20,
        "Semi-Major Axis(m)": 6931778.249405717,
        "Time(s)": 360
    },
    {
        "Altitude(m)": 555555.9371175327,
        "Argument of Periapsis(deg)": 0.012897403741915765,
        "Eccentricity": 0.0,
        "Inclination(deg)": 53.0,
        "Latitude(deg)": -7.715151206238138,
        "Longitude(deg)": -107.36148909592457,
        "Mean Anomaly(deg)": 350.4654545315984,
        "RAAN(deg)": -0.019194492866493558,
        "Satellite Name": "Starlink Shell 1 20",
        "Satellite Number": 20,
        "Semi-Major Axis(m)": 6931778.249405717,
        "Time(s)": 370
    }
]